{
  "type": "FeatureCollection",
  "features": [
    {
      "type": "Feature",
      "properties": {
        "norad_id": 34554,
        "name": "COSMOS 2251 DEB",
        "group": "cosmos-2251-debris",
        "lat": -45.411041992297164,
        "lon": 144.7051119938445,
        "alt_km": 784.7473378676859,
        "timestamp": "2025-12-07T22:37:43.476549+00:00",
        "meta_object_name": "COSMOS 2251 DEB",
        "meta_object_id": "1993-036UQ",
        "meta_epoch": "2025-12-04T23:42:19.325952",
        "meta_mean_motion": 14.37912452,
        "meta_eccentricity": 0.0022634,
        "meta_inclination": 74.0382,
        "meta_ra_of_asc_node": 313.2655,
        "meta_arg_of_pericenter": 17.4579,
        "meta_mean_anomaly": 39.2705,
        "meta_ephemeris_type": 0,
        "meta_classification_type": "U",
        "meta_norad_cat_id": 34554,
        "meta_element_set_no": 999,
        "meta_rev_at_epoch": 87644,
        "meta_bstar": 0.0006467,
        "meta_mean_motion_dot": 1.933e-05,
        "meta_mean_motion_ddot": 0,
        "tle_line1": "1 34554U 93036UQ  25338.98772368  .00001933  00000+0  64670-3 0  9994",
        "tle_line2": "2 34554  74.0382 313.2655 0022634  17.4579  39.2705 14.37912452876445"
      },
      "geometry": {
        "type": "Point",
        "coordinates": [
          144.7051119938445,
          -45.411041992297164
        ]
      }
    },
    {
      "type": "Feature",
      "properties": {
        "norad_id": 34556,
        "name": "COSMOS 2251 DEB",
        "group": "cosmos-2251-debris",
        "lat": 56.780834934341314,
        "lon": 160.23999310882783,
        "alt_km": 635.3151070088234,
        "timestamp": "2025-12-07T22:37:43.476559+00:00",
        "meta_object_name": "COSMOS 2251 DEB",
        "meta_object_id": "1993-036US",
        "meta_epoch": "2025-12-06T20:53:58.479072",
        "meta_mean_motion": 14.7751401,
        "meta_eccentricity": 0.00086313,
        "meta_inclination": 74.0157,
        "meta_ra_of_asc_node": 136.387,
        "meta_arg_of_pericenter": 195.878,
        "meta_mean_anomaly": 284.7122,
        "meta_ephemeris_type": 0,
        "meta_classification_type": "U",
        "meta_norad_cat_id": 34556,
        "meta_element_set_no": 999,
        "meta_rev_at_epoch": 88242,
        "meta_bstar": 0.0041617792,
        "meta_mean_motion_dot": 0.00029811,
        "meta_mean_motion_ddot": 0,
        "tle_line1": "1 34556U 93036US  25340.87081573  .00029811  00000+0  41618-2 0  9999",
        "tle_line2": "2 34556  74.0157 136.3870 0008631 195.8780 284.7122 14.77514010882423"
      },
      "geometry": {
        "type": "Point",
        "coordinates": [
          160.23999310882783,
          56.780834934341314
        ]
      }
    },
    {
      "type": "Feature",
      "properties": {
        "norad_id": 34560,
        "name": "COSMOS 2251 DEB",
        "group": "cosmos-2251-debris",
        "lat": 48.720680830949014,
        "lon": 170.53199954593234,
        "alt_km": 660.8106676843081,
        "timestamp": "2025-12-07T22:37:43.476570+00:00",
        "meta_object_name": "COSMOS 2251 DEB",
        "meta_object_id": "1993-036UW",
        "meta_epoch": "2025-12-05T18:15:09.650304",
        "meta_mean_motion": 14.71848761,
        "meta_eccentricity": 0.00152187,
        "meta_inclination": 74.0158,
        "meta_ra_of_asc_node": 155.7221,
        "meta_arg_of_pericenter": 236.6913,
        "meta_mean_anomaly": 135.7434,
        "meta_ephemeris_type": 0,
        "meta_classification_type": "U",
        "meta_norad_cat_id": 34560,
        "meta_element_set_no": 999,
        "meta_rev_at_epoch": 88149,
        "meta_bstar": 0.0037712821,
        "meta_mean_motion_dot": 0.00023688,
        "meta_mean_motion_ddot": 0,
        "tle_line1": "1 34560U 93036UW  25339.76052836  .00023688  00000+0  37713-2 0  9997",
        "tle_line2": "2 34560  74.0158 155.7221 0015218 236.6913 135.7434 14.71848761881499"
      },
      "geometry": {
        "type": "Point",
        "coordinates": [
          170.53199954593234,
          48.720680830949014
        ]
      }
    },
    {
      "type": "Feature",
      "properties": {
        "norad_id": 34563,
        "name": "COSMOS 2251 DEB",
        "group": "cosmos-2251-debris",
        "lat": -69.47788208223366,
        "lon": 82.53643749510412,
        "alt_km": 737.6821367880511,
        "timestamp": "2025-12-07T22:37:43.476580+00:00",
        "meta_object_name": "COSMOS 2251 DEB",
        "meta_object_id": "1993-036UZ",
        "meta_epoch": "2025-12-06T22:17:25.268352",
        "meta_mean_motion": 14.46482528,
        "meta_eccentricity": 0.00138331,
        "meta_inclination": 74.0381,
        "meta_ra_of_asc_node": 214.5566,
        "meta_arg_of_pericenter": 308.7117,
        "meta_mean_anomaly": 69.6972,
        "meta_ephemeris_type": 0,
        "meta_classification_type": "U",
        "meta_norad_cat_id": 34563,
        "meta_element_set_no": 999,
        "meta_rev_at_epoch": 88113,
        "meta_bstar": 0.00082885823,
        "meta_mean_motion_dot": 2.96e-05,
        "meta_mean_motion_ddot": 0,
        "tle_line1": "1 34563U 93036UZ  25340.92876468  .00002960  00000+0  82886-3 0  9997",
        "tle_line2": "2 34563  74.0381 214.5566 0013833 308.7117  69.6972 14.46482528881134"
      },
      "geometry": {
        "type": "Point",
        "coordinates": [
          82.53643749510412,
          -69.47788208223366
        ]
      }
    },
    {
      "type": "Feature",
      "properties": {
        "norad_id": 34564,
        "name": "COSMOS 2251 DEB",
        "group": "cosmos-2251-debris",
        "lat": 41.523571374690334,
        "lon": 52.20067565770097,
        "alt_km": 763.5070638740635,
        "timestamp": "2025-12-07T22:37:43.476591+00:00",
        "meta_object_name": "COSMOS 2251 DEB",
        "meta_object_id": "1993-036VA",
        "meta_epoch": "2025-12-07T04:21:43.580160",
        "meta_mean_motion": 14.4067497,
        "meta_eccentricity": 0.00188008,
        "meta_inclination": 74.0328,
        "meta_ra_of_asc_node": 248.294,
        "meta_arg_of_pericenter": 353.204,
        "meta_mean_anomaly": 157.1456,
        "meta_ephemeris_type": 0,
        "meta_classification_type": "U",
        "meta_norad_cat_id": 34564,
        "meta_element_set_no": 999,
        "meta_rev_at_epoch": 87926,
        "meta_bstar": 0.00046720269,
        "meta_mean_motion_dot": 1.469e-05,
        "meta_mean_motion_ddot": 0,
        "tle_line1": "1 34564U 93036VA  25341.18175440  .00001469  00000+0  46720-3 0  9999",
        "tle_line2": "2 34564  74.0328 248.2940 0018800 353.2040 157.1456 14.40674970879264"
      },
      "geometry": {
        "type": "Point",
        "coordinates": [
          52.20067565770097,
          41.523571374690334
        ]
      }
    },
    {
      "type": "Feature",
      "properties": {
        "norad_id": 34567,
        "name": "COSMOS 2251 DEB",
        "group": "cosmos-2251-debris",
        "lat": 65.1833563504797,
        "lon": -52.81949533900456,
        "alt_km": 840.4054198902395,
        "timestamp": "2025-12-07T22:37:43.476601+00:00",
        "meta_object_name": "COSMOS 2251 DEB",
        "meta_object_id": "1993-036VD",
        "meta_epoch": "2025-12-07T05:47:35.055744",
        "meta_mean_motion": 14.24007755,
        "meta_eccentricity": 0.0074583,
        "meta_inclination": 74.0399,
        "meta_ra_of_asc_node": 166.6761,
        "meta_arg_of_pericenter": 242.1148,
        "meta_mean_anomaly": 233.0535,
        "meta_ephemeris_type": 0,
        "meta_classification_type": "U",
        "meta_norad_cat_id": 34567,
        "meta_element_set_no": 999,
        "meta_rev_at_epoch": 87046,
        "meta_bstar": 0.00034731191,
        "meta_mean_motion_dot": 7.95e-06,
        "meta_mean_motion_ddot": 0,
        "tle_line1": "1 34567U 93036VD  25341.24137796  .00000795  00000+0  34731-3 0  9991",
        "tle_line2": "2 34567  74.0399 166.6761 0074583 242.1148 233.0535 14.24007755870462"
      },
      "geometry": {
        "type": "Point",
        "coordinates": [
          -52.81949533900456,
          65.1833563504797
        ]
      }
    },
    {
      "type": "Feature",
      "properties": {
        "norad_id": 34569,
        "name": "COSMOS 2251 DEB",
        "group": "cosmos-2251-debris",
        "lat": -72.21978780477984,
        "lon": 90.35417138534312,
        "alt_km": 894.0302578555893,
        "timestamp": "2025-12-07T22:37:43.476611+00:00",
        "meta_object_name": "COSMOS 2251 DEB",
        "meta_object_id": "1993-036VF",
        "meta_epoch": "2025-12-07T01:52:13.468224",
        "meta_mean_motion": 14.24729591,
        "meta_eccentricity": 0.01570429,
        "meta_inclination": 73.9909,
        "meta_ra_of_asc_node": 208.3735,
        "meta_arg_of_pericenter": 38.0636,
        "meta_mean_anomaly": 110.9034,
        "meta_ephemeris_type": 0,
        "meta_classification_type": "U",
        "meta_norad_cat_id": 34569,
        "meta_element_set_no": 999,
        "meta_rev_at_epoch": 86887,
        "meta_bstar": 0.00097526672,
        "meta_mean_motion_dot": 2.557e-05,
        "meta_mean_motion_ddot": 0,
        "tle_line1": "1 34569U 93036VF  25341.07793366  .00002557  00000+0  97527-3 0  9995",
        "tle_line2": "2 34569  73.9909 208.3735 0157042  38.0636 110.9034 14.24729591868878"
      },
      "geometry": {
        "type": "Point",
        "coordinates": [
          90.35417138534312,
          -72.21978780477984
        ]
      }
    }
  ]
}